OBJECT_NAME,OBJECT_ID,EPOCH,MEAN_MOTION,ECCENTRICITY,INCLINATION,RA_OF_ASC_NODE,ARG_OF_PERICENTER,MEAN_ANOMALY,EPHEMERIS_TYPE,CLASSIFICATION_TYPE,NORAD_CAT_ID,ELEMENT_SET_NO,REV_AT_EPOCH,BSTAR,MEAN_MOTION_DOT,MEAN_MOTION_DDOT
STARLINK-32743,2024-254U,2026-03-10T05:54:15.938784,15.27605459,.00013676,42.9991,12.7483,285.2252,74.8449,0,U,62480,999,6774,.13435579E-2,.36924E-3,0
STARLINK-32753,2024-254V,2026-03-10T06:16:27.981408,15.27584734,.00009668,43.0011,12.8628,280.3871,79.6872,0,U,62481,999,6774,.91563145E-3,.25023E-3,0
STARLINK-32699,2024-254W,2026-03-10T04:45:18.329184,15.27597254,.00017809,43.0013,16.7141,254.0405,106.0251,0,U,62482,999,6754,.1266098E-2,.34761E-3,0
THURAYA-4,2025-001A,2026-03-10T05:27:14.710176,1.00272689,.00001608,0.0176,104.2702,335.5488,214.1829,0,U,62483,999,318,0,.141E-5,0
SHIJIAN-25 (SJ-25),2025-002A,2026-03-09T15:08:43.582272,1.00277085,.004857,4.8773,61.7418,166.4254,293.6143,0,U,62485,999,436,0,-.348E-5,0
STARLINK-32713,2025-003A,2026-03-10T00:50:39.095808,15.27598123,.0001023,43.0001,287.0901,259.0605,101.0132,0,U,62487,999,6670,.73817872E-3,.20118E-3,0
STARLINK-32732,2025-003B,2026-03-10T00:02:31.646688,15.27608324,.00010834,43.0015,286.8336,298.8742,61.2001,0,U,62488,999,6660,.14091685E-2,.38753E-3,0
STARLINK-32328,2025-003C,2026-03-09T00:06:19.314144,15.27588130,.00014278,43.0025,293.1087,259.7364,100.3326,0,U,62489,999,6656,.11468565E-2,.31439E-3,0
STARLINK-32332,2025-003D,2026-03-09T23:22:02.032896,15.27600674,.00008073,43.0007,287.4856,339.4172,20.6647,0,U,62490,999,6669,.13135197E-2,.36083E-3,0
STARLINK-32717,2025-003E,2026-03-10T00:28:25.492800,15.27601463,.00010222,43.0002,286.9712,306.8456,53.2302,0,U,62491,999,6672,.87215836E-3,.23831E-3,0
STARLINK-32757,2025-003F,2026-03-09T23:31:16.189536,15.27602318,.00025249,43.0040,287.5283,258.8183,101.2385,0,U,62492,999,6659,.14224615E-2,.39117E-3,0
STARLINK-32731,2025-003G,2026-03-09T23:49:47.345376,15.27594845,.0000383,43.0029,287.6264,14.1423,345.9439,0,U,62493,999,6671,.1017215E-2,.27848E-3,0
STARLINK-32694,2025-003H,2026-03-10T00:13:37.187616,15.27603054,.00017603,42.9977,286.8911,266.8345,93.2305,0,U,62494,999,6672,.11736703E-2,.32199E-3,0
STARLINK-32708,2025-003J,2026-03-09T23:25:44.125824,15.27596782,.00012313,42.9995,287.5013,34.7359,325.3573,0,U,62495,999,6659,.99486463E-3,.27229E-3,0
STARLINK-32718,2025-003K,2026-03-10T00:08:04.822368,15.27596422,.0000746,43.0005,286.8662,350.9415,9.1424,0,U,62496,999,6660,.10439351E-2,.2859E-3,0
STARLINK-32729,2025-003L,2026-03-10T00:19:09.691104,15.27587235,.00025706,42.9982,286.9142,250.0352,110.0223,0,U,62497,999,6672,.8484381E-3,.23165E-3,0
STARLINK-32739,2025-003M,2026-03-10T00:41:23.148960,15.27588296,.00004417,42.9951,287.0361,339.0364,21.0469,0,U,62498,999,6667,.68911282E-3,.18754E-3,0
STARLINK-32714,2025-003N,2026-03-09T23:47:56.239296,15.27588385,.00006628,43.0026,287.6197,320.8787,39.2016,0,U,62499,999,6671,.64682365E-3,.17584E-3,0
STARLINK-32685,2025-003P,2026-03-09T00:04:27.653376,15.27605936,.00019809,43.0010,293.1001,250.2841,109.7797,0,U,62500,999,6651,.10523619E-2,.28833E-3,0
STARLINK-32691,2025-003Q,2026-03-09T23:05:22.700256,15.27604405,.0000589,43.0004,287.3890,6.0113,354.0745,0,U,62501,999,6670,.12776E-2,.35087E-3,0
STARLINK-32788,2025-003R,2026-03-09T22:59:49.827840,15.27590980,.0000703,42.9941,287.3671,7.8344,352.2518,0,U,62502,999,6659,.84614E-3,.23103E-3,0
STARLINK-32768,2025-003S,2026-03-10T00:09:55.108512,15.27599268,.0001484,43.0026,286.8690,292.4163,67.6531,0,U,62503,999,6660,.8696906E-3,.23761E-3,0
STARLINK-32792,2025-003T,2026-03-09T23:56:58.694784,15.27600339,.00000856,42.9970,286.7961,331.7888,28.2959,0,U,62504,999,6660,.10614867E-2,.29081E-3,0
STARLINK-32725,2025-003U,2026-03-09T00:26:27.849696,15.27605123,.00011864,42.9993,292.3326,247.7470,112.3256,0,U,62505,999,6645,.10130603E-2,.27741E-3,0
STARLINK-32681,2025-003V,2026-03-09T21:39:56.873376,15.27618350,.0001978,43.0017,269.2136,273.7144,86.3481,0,U,62506,999,6691,.122E-2,.33503E-3,0
STARLINK-32679,2025-003W,2026-03-09T23:53:28.749696,15.27599192,.00008414,43.0042,287.6064,309.4261,50.6516,0,U,62507,999,6671,.11250059E-2,.30843E-3,0
STARLINK-32749,2025-003X,2026-03-10T00:24:42.760512,15.27598295,.00029249,42.9971,286.9431,248.0444,112.0097,0,U,62508,999,6660,.10141565E-2,.27768E-3,0
STARLINK-32744,2025-003Y,2026-03-09T23:42:22.951296,15.27603872,.0001025,42.9956,287.5926,73.0122,287.0842,0,U,62509,999,6659,.83424672E-3,.22782E-3,0
STARLINK-32701,2025-003Z,2026-03-10T00:45:04.094496,15.27602714,.00028072,42.9998,287.0522,243.8342,116.2221,0,U,62510,999,6660,.13217093E-2,.36315E-3,0
STARLINK-11452 [DTC],2025-004A,2026-03-10T07:01:16.221504,15.70928825,.00014518,43.0008,67.0702,265.9682,94.1020,0,U,62511,999,6822,.19479981E-2,.258395E-2,0
