STARLINK-32743          
1 62480U 24254U   26069.24601781  .00036924  00000+0  13436-2 0  9991
2 62480  42.9991  12.7483 0001367 285.2252  74.8449 15.27605459 67748
STARLINK-32753          
1 62481U 24254V   26069.26143497  .00025023  00000+0  91563-3 0  9995
2 62481  43.0011  12.8628 0000966 280.3871  79.6872 15.27584734 67748
STARLINK-32699          
1 62482U 24254W   26069.19812881  .00034761  00000+0  12661-2 0  9998
2 62482  43.0013  16.7141 0001780 254.0405 106.0251 15.27597254 67545
THURAYA-4               
1 62483U 25001A   26069.22725359  .00000141  00000+0  00000+0 0  9993
2 62483   0.0176 104.2702 0000160 335.5488 214.1829  1.00272689  3182
SHIJIAN-25 (SJ-25)      
1 62485U 25002A   26068.63105998 -.00000348  00000+0  00000+0 0  9991
2 62485   4.8773  61.7418 0048570 166.4254 293.6143  1.00277085  4366
STARLINK-32713          
1 62487U 25003A   26069.03517472  .00020118  00000+0  73818-3 0  9990
2 62487  43.0001 287.0901 0001023 259.0605 101.0132 15.27598123 66707
STARLINK-32732          
1 62488U 25003B   26069.00175517  .00038753  00000+0  14092-2 0  9990
2 62488  43.0015 286.8336 0001083 298.8742  61.2001 15.27608324 66607
STARLINK-32328          
1 62489U 25003C   26068.00439021  .00031439  00000+0  11469-2 0  9992
2 62489  43.0025 293.1087 0001427 259.7364 100.3326 15.27588130 66563
STARLINK-32332          
1 62490U 25003D   26068.97363464  .00036083  00000+0  13135-2 0  9999
2 62490  43.0007 287.4856 0000807 339.4172  20.6647 15.27600674 66691
STARLINK-32717          
1 62491U 25003E   26069.01973950  .00023831  00000+0  87216-3 0  9992
2 62491  43.0002 286.9712 0001022 306.8456  53.2302 15.27601463 66726
STARLINK-32757          
1 62492U 25003F   26068.98004849  .00039117  00000+0  14225-2 0  9993
2 62492  43.0040 287.5283 0002524 258.8183 101.2385 15.27602318 66590
STARLINK-32731          
1 62493U 25003G   26068.99290909  .00027848  00000+0  10172-2 0  9994
2 62493  43.0029 287.6264 0000383  14.1423 345.9439 15.27594845 66715
STARLINK-32694          
1 62494U 25003H   26069.00945819  .00032199  00000+0  11737-2 0  9998
2 62494  42.9977 286.8911 0001760 266.8345  93.2305 15.27603054 66724
STARLINK-32708          
1 62495U 25003J   26068.97620516  .00027229  00000+0  99486-3 0  9994
2 62495  42.9995 287.5013 0001231  34.7359 325.3573 15.27596782 66596
STARLINK-32718          
1 62496U 25003K   26069.00561137  .00028590  00000+0  10439-2 0  9995
2 62496  43.0005 286.8662 0000746 350.9415   9.1424 15.27596422 66604
STARLINK-32729          
1 62497U 25003L   26069.01330661  .00023165  00000+0  84844-3 0  9998
2 62497  42.9982 286.9142 0002570 250.0352 110.0223 15.27587235 66722
STARLINK-32739          
1 62498U 25003M   26069.02874015  .00018754  00000+0  68911-3 0  9991
2 62498  42.9951 287.0361 0000441 339.0364  21.0469 15.27588296 66675
STARLINK-32714          
1 62499U 25003N   26068.99162314  .00017584  00000+0  64682-3 0  9990
2 62499  43.0026 287.6197 0000662 320.8787  39.2016 15.27588385 66719
STARLINK-32685          
1 62500U 25003P   26068.00309784  .00028833  00000+0  10524-2 0  9993
2 62500  43.0010 293.1001 0001980 250.2841 109.7797 15.27605936 66511
STARLINK-32691          
1 62501U 25003Q   26068.96206829  .00035087  00000+0  12776-2 0  9995
2 62501  43.0004 287.3890 0000589   6.0113 354.0745 15.27604405 66708
STARLINK-32788          
1 62502U 25003R   26068.95821560  .00023103  00000+0  84614-3 0  9997
2 62502  42.9941 287.3671 0000703   7.8344 352.2518 15.27590980 66594
STARLINK-32768          
1 62503U 25003S   26069.00688783  .00023761  00000+0  86969-3 0  9998
2 62503  43.0026 286.8690 0001484 292.4163  67.6531 15.27599268 66606
STARLINK-32792          
1 62504U 25003T   26068.99790156  .00029081  00000+0  10615-2 0  9999
2 62504  42.9970 286.7961 0000085 331.7888  28.2959 15.27600339 66609
STARLINK-32725          
1 62505U 25003U   26068.01837789  .00027741  00000+0  10131-2 0  9991
2 62505  42.9993 292.3326 0001186 247.7470 112.3256 15.27605123 66453
STARLINK-32681          
1 62506U 25003V   26068.90274159  .00033503  00000+0  12200-2 0  9998
2 62506  43.0017 269.2136 0001978 273.7144  86.3481 15.27618350 66918
STARLINK-32679          
1 62507U 25003W   26068.99547164  .00030843  00000+0  11250-2 0  9995
2 62507  43.0042 287.6064 0000841 309.4261  50.6516 15.27599192 66719
STARLINK-32749          
1 62508U 25003X   26069.01716158  .00027768  00000+0  10142-2 0  9992
2 62508  42.9971 286.9431 0002924 248.0444 112.0097 15.27598295 66602
STARLINK-32744          
1 62509U 25003Y   26068.98776564  .00022782  00000+0  83425-3 0  9991
2 62509  42.9956 287.5926 0001025  73.0122 287.0842 15.27603872 66599
STARLINK-32701          
1 62510U 25003Z   26069.03129739  .00036315  00000+0  13217-2 0  9994
2 62510  42.9998 287.0522 0002807 243.8342 116.2221 15.27602714 66604
STARLINK-11452 [DTC]    
1 62511U 25004A   26069.29254886  .00258395  00000+0  19480-2 0  9998
2 62511  43.0008  67.0702 0001451 265.9682  94.1020 15.70928825 68224
